{"type":"FeatureCollection","name":"Colacling waterways from OpenStreetMap","features":[{"type":"Feature","properties":{"osm_id":356879658,"waterway":"river","name":null,"source":"OpenStreetMap"},"geometry":{"type":"LineString","coordinates":[[122.8714429,13.7729168],[122.8715869,13.7729758],[122.8717896,13.7730185],[122.8719534,13.7730785],[122.8720834,13.7730511],[122.8721679,13.7729742],[122.8721993,13.7727442],[122.8721528,13.7725314],[122.8721166,13.7722402],[122.8720705,13.7720497],[122.8720535,13.7718859],[122.8720847,13.771742],[122.8721685,13.7716806],[122.8723768,13.7715788],[122.8726162,13.7715392],[122.8727953,13.7715713],[122.8728949,13.7717135],[122.8730558,13.7717983],[122.8730998,13.7718682],[122.8731116,13.7719538],[122.8730026,13.7720708],[122.872797,13.7721643],[122.8725992,13.7722366],[122.8726054,13.7723375],[122.8726762,13.7724639],[122.8727414,13.7725057],[122.8728541,13.7725388],[122.8730475,13.7725199],[122.8734497,13.7724346],[122.8736517,13.7723947],[122.8737405,13.772404],[122.8738661,13.7725583],[122.874003,13.7727412],[122.8742612,13.7729223],[122.8745226,13.7731175],[122.8746118,13.7733775],[122.8747089,13.7737105],[122.8746948,13.7738428],[122.8746015,13.7742402],[122.8744759,13.7747599],[122.8744689,13.7750171],[122.8745087,13.7753385],[122.8746095,13.7755197],[122.8746939,13.7755687],[122.874843,13.7755176],[122.8749116,13.7755158],[122.8749712,13.7755374],[122.8750132,13.7755813],[122.8750678,13.7757529],[122.8750536,13.7760414],[122.8751319,13.7762122],[122.8752836,13.7764717],[122.8754348,13.7765566],[122.8756556,13.7765996],[122.8758055,13.7766126],[122.8759704,13.7765613],[122.8760606,13.7764638],[122.8760925,13.7763709],[122.8760991,13.7763324],[122.8761121,13.7761423],[122.8761466,13.7757884],[122.8762144,13.775681],[122.8763451,13.7755538],[122.876525,13.7754882],[122.8767713,13.7754319],[122.8770312,13.7754715],[122.8772162,13.775521],[122.8773951,13.7756318],[122.8774615,13.7758766],[122.877586,13.7762033],[122.8777029,13.7766165],[122.8777897,13.776839],[122.8777856,13.7770119],[122.8776945,13.7773422],[122.8776427,13.7776718],[122.8774897,13.7778151],[122.8774812,13.7779211],[122.877511,13.7779527],[122.8775581,13.7779487],[122.8776871,13.7778702],[122.8778382,13.7777943],[122.8780998,13.7777802],[122.8783008,13.7777953],[122.878467,13.7777967],[122.8791586,13.7779553],[122.8793655,13.7780259],[122.8796626,13.7782005],[122.8798023,13.7783463],[122.8798629,13.7783863],[122.8799298,13.7784031],[122.8799808,13.7783911],[122.8800323,13.7783304],[122.8801885,13.7780945],[122.8804339,13.7778648],[122.8806545,13.7777749],[122.8809022,13.7777755],[122.8810952,13.7778291],[122.8812145,13.7779132],[122.8813016,13.7780771],[122.8813633,13.7782044],[122.881431,13.7783404],[122.8815093,13.7784464],[122.8815622,13.7785717],[122.8816004,13.7787671],[122.8816746,13.7789801],[122.8817485,13.7791606],[122.8819058,13.7794427],[122.8820432,13.779785],[122.8821769,13.7799705],[122.8824059,13.7802378],[122.8824699,13.7802961],[122.8829956,13.7803747],[122.8834809,13.7804153],[122.8835993,13.7804483],[122.8838466,13.7806488],[122.8840693,13.7808502],[122.8843816,13.781202],[122.8845729,13.7814139],[122.8847851,13.7816056],[122.8848875,13.7817275],[122.8850187,13.781791],[122.8851996,13.781852],[122.8853837,13.7818705],[122.8855609,13.7818492],[122.8856805,13.7817847],[122.8859301,13.781615],[122.8860239,13.7815082],[122.8860596,13.7813734],[122.8860232,13.7812543],[122.8859331,13.781083],[122.8857678,13.7809971],[122.8856822,13.7808413],[122.8856147,13.7806531],[122.8857453,13.7804984],[122.8859665,13.7804033],[122.8861196,13.780415],[122.8863,13.7805251],[122.8864656,13.7806882],[122.8866554,13.780939],[122.8867491,13.7812418],[122.8867599,13.7814949],[122.8866788,13.781785],[122.8866237,13.782189],[122.8866206,13.7824702],[122.8866416,13.7826476]]}},{"type":"Feature","properties":{"osm_id":613243937,"waterway":"river","name":null,"source":"OpenStreetMap"},"geometry":{"type":"LineString","coordinates":[[122.8638495,13.7714037],[122.8640071,13.7713487],[122.864096,13.7713429],[122.8642617,13.7713743],[122.8643991,13.7714233],[122.8645184,13.7715116],[122.8647002,13.7716529],[122.8648174,13.7717236],[122.8649689,13.7717962],[122.8651124,13.7718668],[122.8652417,13.7718982],[122.8653266,13.7719041],[122.8654135,13.7718767],[122.8657085,13.7717177],[122.8659267,13.771598],[122.8660722,13.7715352],[122.866147,13.771547],[122.8662217,13.771596],[122.8662742,13.7716588],[122.8662783,13.7717275],[122.8662662,13.7718178],[122.8662197,13.7719316],[122.8660843,13.7721298],[122.8659772,13.7722829],[122.8657792,13.7723889],[122.8656236,13.7724536],[122.8655428,13.772485],[122.8654397,13.7724752],[122.8653448,13.7724536],[122.8652316,13.7724065],[122.8651831,13.7723634],[122.8650659,13.7723104],[122.8649487,13.7723261],[122.8648538,13.772383],[122.8648315,13.7724791],[122.8648679,13.7725714],[122.8649609,13.772644],[122.8651973,13.7728363],[122.8654317,13.7729796],[122.8655994,13.7730659],[122.8656883,13.7730738],[122.865757,13.7730306],[122.8658156,13.7729482],[122.8659186,13.7728422],[122.8660742,13.7727245],[122.8663046,13.7725557],[122.8664521,13.7724576],[122.8666076,13.772383],[122.8667248,13.7722986],[122.8669471,13.7721651],[122.8671633,13.7720749],[122.8673452,13.7719414],[122.867426,13.7718296],[122.8674846,13.7716667],[122.8675149,13.7715332],[122.8675796,13.7713272],[122.8676806,13.7712526],[122.8678261,13.7712408],[122.8679554,13.7712565],[122.8681655,13.7712702],[122.8683615,13.771333],[122.8685636,13.771388],[122.8687677,13.7714331],[122.868897,13.7714567],[122.8690627,13.771492],[122.869287,13.7715627],[122.8695436,13.7716588],[122.8696769,13.7717962],[122.8697658,13.7719885],[122.8698729,13.7721651],[122.8699841,13.7722181],[122.8701093,13.7722319],[122.8702568,13.7722279],[122.870368,13.7721946],[122.8704771,13.7720768],[122.8706003,13.7719767],[122.8707418,13.771857],[122.8708489,13.7717569],[122.8709802,13.7716431],[122.8710772,13.7715764],[122.8711419,13.7715685],[122.8712267,13.7715705],[122.8713459,13.7716255],[122.8713763,13.7716922],[122.8714025,13.7718001],[122.8714005,13.7719669],[122.8713358,13.7721789],[122.8712692,13.7724517],[122.871251,13.7725792],[122.8712611,13.7726715],[122.8712934,13.7728088],[122.8713702,13.7728913],[122.8714429,13.7729168]]}},{"type":"Feature","properties":{"osm_id":613252365,"waterway":"river","name":null,"source":"OpenStreetMap"},"geometry":{"type":"LineString","coordinates":[[122.8821769,13.7799705],[122.8823854,13.7800085],[122.882548,13.7800319],[122.8827015,13.7801021],[122.8828219,13.7801825],[122.8829469,13.7802307],[122.8830778,13.7802409],[122.8832299,13.7802366],[122.8833021,13.7802322],[122.8833443,13.7802614],[122.883409,13.7803287],[122.8834809,13.7804153]]}},{"type":"Feature","properties":{"osm_id":613252368,"waterway":"river","name":null,"source":"OpenStreetMap"},"geometry":{"type":"LineString","coordinates":[[122.8751319,13.7762122],[122.8752201,13.7762156],[122.8753014,13.7761887],[122.8753982,13.7761837],[122.87554,13.7762055],[122.8756732,13.7762626],[122.8758357,13.7763214],[122.8759758,13.7763634],[122.8760991,13.7763324]]}},{"type":"Feature","properties":{"osm_id":884239988,"waterway":"stream","name":null,"source":"OpenStreetMap"},"geometry":{"type":"LineString","coordinates":[[122.8752994,13.770347],[122.8753618,13.7708907],[122.8755374,13.7710421],[122.8754803,13.7711742],[122.8751621,13.7713426],[122.8748504,13.7715089],[122.8745805,13.7718052],[122.8745476,13.772078],[122.8745168,13.7725086],[122.8744839,13.7728625],[122.8745226,13.7731175]]}},{"type":"Feature","properties":{"osm_id":1469022141,"waterway":"river","name":null,"source":"OpenStreetMap"},"geometry":{"type":"LineString","coordinates":[[122.8866416,13.7826476],[122.8866653,13.7828173],[122.8866653,13.782958],[122.8866746,13.7830298],[122.8867516,13.7830926],[122.8868286,13.7831944],[122.8869087,13.783326],[122.8869518,13.7834936],[122.886995,13.7836672],[122.886995,13.7837749],[122.886918,13.7839275],[122.8868717,13.7840083],[122.8867824,13.784119],[122.8867177,13.7842447],[122.8866561,13.7846038],[122.886616,13.7849419],[122.8865267,13.7854296],[122.8864897,13.7857797],[122.8864127,13.7859772],[122.8863387,13.7861448],[122.8863172,13.7862765],[122.886348,13.786435],[122.8863634,13.7865458],[122.8864034,13.7866385],[122.8864959,13.7867193],[122.8866314,13.7868091],[122.8869149,13.7869318],[122.8872014,13.7869737]]}}]}
