{"type": "FeatureCollection", "features": [{"type": "Feature", "id": 12955, "geometry": {"type": "Polygon", "coordinates": [[[122.88649567100003, 13.786743429000069], [122.88572242400005, 13.786536844000068], [122.8852126480001, 13.786134869000023], [122.88450631400008, 13.78559262300007], [122.88383292700007, 13.785275543000068], [122.88333279400001, 13.78507995800004], [122.8821898000001, 13.784800960000041], [122.88124673800007, 13.785383488000036], [122.88051945900008, 13.785783412000058], [122.87993548100008, 13.786204457000053], [122.87892686700002, 13.786421271000052], [122.87827717800008, 13.78690862600007], [122.87662800800001, 13.786553111000046], [122.875830758, 13.786391362000074], [122.87479086500002, 13.78673492300004], [122.87417845900006, 13.787331508000022], [122.87404940300007, 13.787387162000073], [122.87340489600001, 13.787665971000024], [122.87218912100002, 13.787469656000042], [122.8709380680001, 13.787174003000075], [122.87079832900008, 13.787096622000035], [122.86978457400005, 13.786535223000044], [122.86912639700006, 13.78662338600003], [122.86853491800002, 13.786561602000063], [122.86800699900004, 13.786283445000038], [122.86761092000006, 13.785619097000051], [122.86714675600001, 13.78518854400005], [122.8666235820001, 13.785547105000035], [122.86631985700001, 13.785455434000028], [122.86612538700001, 13.785238069000059], [122.86578498600011, 13.785343265000051], [122.86511894700004, 13.784961834000057], [122.86567941800001, 13.784203189000038], [122.86604272000011, 13.783137706000048], [122.86617426200007, 13.781914562000054], [122.86615896900003, 13.779324836000058], [122.86594089000005, 13.77872747400005], [122.86508354700004, 13.77724087300004], [122.86481149500003, 13.776896725000029], [122.86449448200005, 13.776504654000064], [122.86544424800002, 13.773655435000023], [122.86544891500012, 13.77364318900004], [122.86548151600005, 13.773557943000071], [122.86563346200012, 13.77315266100004], [122.86608146000003, 13.771767584000031], [122.86609646000011, 13.77142864600006], [122.86613287300008, 13.77160576700004], [122.86627920100011, 13.771641658000021], [122.86660824100011, 13.771535963000076], [122.86711983000009, 13.771482493000065], [122.86746267500007, 13.771413121000023], [122.86761210100008, 13.771158024000044], [122.86791165700004, 13.771168978000048], [122.86816131800003, 13.771319231000064], [122.86855793900008, 13.771318434000023], [122.86892593900006, 13.771401226000023], [122.86913542800005, 13.771448383000063], [122.86934462500005, 13.77155788400006], [122.86953785500009, 13.771777138000061], [122.86994066800003, 13.77216880900005], [122.87018249100004, 13.772184458000027], [122.87040808200004, 13.771996264000052], [122.87068214600004, 13.771760906000054], [122.87098887400009, 13.771541307000064], [122.8710764760001, 13.771553550000021], [122.87121503000003, 13.771572794000065], [122.87139960500008, 13.77159617600006], [122.87130218900006, 13.771987928000044], [122.87128725200012, 13.77236464200007], [122.87132034400008, 13.77267833600007], [122.87144950900006, 13.77283508000005], [122.87170786400009, 13.772991839000042], [122.87204696000003, 13.772991898000043], [122.87216003700007, 13.77274122600005], [122.87211169300008, 13.772365187000048], [122.87193350100006, 13.77194174400006], [122.8720136930001, 13.771675007000056], [122.87228832400001, 13.771502780000048], [122.87257917200009, 13.771377728000061], [122.87290275200007, 13.771566634000067], [122.87304792700002, 13.771848631000069], [122.87291879400004, 13.772083516000066], [122.87269280100008, 13.772381050000035], [122.87285416800012, 13.772490755000035], [122.87320918800003, 13.772396886000024], [122.87366181800007, 13.772256943000059], [122.8738394080001, 13.772492021000062], [122.87430621600004, 13.772851569000068], [122.87446014200009, 13.773068318000071], [122.87464731700004, 13.773485816000061], [122.87478095600011, 13.773906580000073], [122.87466228400001, 13.774440660000039], [122.8744871670001, 13.775018975000023], [122.87454385000001, 13.775448100000062], [122.87474040400002, 13.775485131000039], [122.87484299700009, 13.775503387000072], [122.87507095700005, 13.775558709000052], [122.87524215300004, 13.776209745000074], [122.87494922600001, 13.776703749000035], [122.87395483700004, 13.777395236000075], [122.87404237200008, 13.777903209000044], [122.8755683070001, 13.779756131000056], [122.87659672900008, 13.780267845000026], [122.87812512500011, 13.780607092000025], [122.87979934700002, 13.781211215000042], [122.88183468500006, 13.781750470000077], [122.88353260400004, 13.782680238000069], [122.88483522500007, 13.782900355000038], [122.88550703700002, 13.782860350000021], [122.88587720400005, 13.78289172500007], [122.8859264670001, 13.782896470000026], [122.88667615600002, 13.784353726000063], [122.88666258300009, 13.785360078000053], [122.88656217300002, 13.785896820000062], [122.8864051160001, 13.786323835000076], [122.88649567100003, 13.786743429000069]]]}, "properties": {"objectid": 12955, "reg_name": "Region V (Bicol Region)", "prov_name": "Camarines Sur", "city_name": "Lupi", "brgy_name": "Colacling (Del Rosario)", "reg_code": "050000000", "prov_code": "051700000", "city_code": "051719000", "brgy_code": "051719016", "psgc_10d": "0501719016", "last_edited_user": null, "last_edited_date": null, "globalid": "{47E3391C-4924-4B07-8B2D-13A10D427B97}", "st_area(shape)": 0.00018801851369039705, "st_length(shape)": 0.0756887067277136, "created_user": null, "created_date": null}}]}