{"type":"FeatureCollection","features":[{"type":"Feature","id":453668,"geometry":{"type":"Polygon","coordinates":[[[122.871442,13.772826],[122.871448,13.772988],[122.87139,13.773131],[122.871283,13.773259],[122.871169,13.77338],[122.871012,13.773445],[122.870826,13.77348],[122.870605,13.773509],[122.870412,13.77353],[122.870141,13.77353],[122.869941,13.773573],[122.869763,13.773659],[122.869506,13.773816],[122.869263,13.773944],[122.869056,13.774073],[122.868935,13.774201],[122.868849,13.774287],[122.868714,13.774437],[122.868585,13.774594],[122.868464,13.774694],[122.868314,13.774715],[122.868214,13.774708],[122.868085,13.774644],[122.867985,13.774515],[122.867921,13.77438],[122.867821,13.774201],[122.86775,13.774051],[122.867664,13.77388],[122.867543,13.773752],[122.867421,13.77363],[122.867279,13.773516],[122.867107,13.773395],[122.866936,13.773302],[122.866765,13.773209],[122.866658,13.773131],[122.866465,13.773045],[122.866394,13.772988],[122.866336,13.772888],[122.866322,13.77276],[122.866329,13.772624],[122.866358,13.772453],[122.866394,13.772303],[122.866429,13.772153],[122.866472,13.772003],[122.866551,13.771853],[122.866665,13.771703],[122.866808,13.77156],[122.866863,13.771509],[122.86712,13.771482],[122.867463,13.771413],[122.867612,13.771158],[122.867912,13.771169],[122.868161,13.771319],[122.868558,13.771318],[122.868926,13.771401],[122.869135,13.771448],[122.869345,13.771558],[122.869538,13.771777],[122.869941,13.772169],[122.870182,13.772184],[122.870408,13.771996],[122.870682,13.771761],[122.870971,13.771554],[122.871062,13.771639],[122.871148,13.771817],[122.871198,13.771974],[122.871219,13.772117],[122.871241,13.772288],[122.871276,13.772424],[122.871297,13.772459],[122.87132,13.772678],[122.871442,13.772826]]]},"properties":{"objectid":453668,"fscode":"03","brgy_name":"Colacling (Del Rosario)","city_name":"Lupi","prov_name":"Camarines Sur"}},{"type":"Feature","id":454529,"geometry":{"type":"Polygon","coordinates":[[[122.872399,13.771455],[122.872579,13.771378],[122.872903,13.771567],[122.873048,13.771849],[122.873017,13.771905],[122.872934,13.771806],[122.872812,13.77162],[122.872698,13.771513],[122.87252,13.77147],[122.872399,13.771455]]]},"properties":{"objectid":454529,"fscode":"01","brgy_name":"Colacling (Del Rosario)","city_name":"Lupi","prov_name":"Camarines Sur"}},{"type":"Feature","id":454940,"geometry":{"type":"Polygon","coordinates":[[[122.886493,13.78673],[122.886496,13.786743],[122.886032,13.78662],[122.885911,13.786529],[122.885692,13.786396],[122.885474,13.78632],[122.885451,13.786323],[122.885213,13.786135],[122.884506,13.785593],[122.884012,13.78536],[122.884017,13.785292],[122.884122,13.785206],[122.884341,13.785235],[122.884522,13.78532],[122.884712,13.785434],[122.884864,13.785549],[122.885036,13.785634],[122.885169,13.785644],[122.885264,13.785463],[122.885236,13.785263],[122.885188,13.785092],[122.885112,13.784997],[122.885017,13.784892],[122.884902,13.784768],[122.884693,13.784473],[122.884607,13.78434],[122.884579,13.784216],[122.884588,13.784178],[122.88476,13.78415],[122.88504,13.784237],[122.885335,13.78438],[122.885478,13.784466],[122.885725,13.784618],[122.886039,13.784837],[122.886029,13.785409],[122.886036,13.785709],[122.886108,13.786037],[122.886151,13.786308],[122.886251,13.78653],[122.886479,13.786722],[122.886493,13.78673]]]},"properties":{"objectid":454940,"fscode":"01","brgy_name":"Colacling (Del Rosario)","city_name":"Lupi","prov_name":"Camarines Sur"}},{"type":"Feature","id":455132,"geometry":{"type":"MultiPolygon","coordinates":[[[[122.875507,13.779682],[122.875398,13.779688],[122.875094,13.779793],[122.874856,13.779878],[122.874608,13.780059],[122.874399,13.780221],[122.874151,13.780469],[122.873866,13.780668],[122.873638,13.780811],[122.873514,13.780925],[122.873438,13.781059],[122.873419,13.781268],[122.873361,13.781458],[122.873257,13.781525],[122.873171,13.78143],[122.873057,13.781278],[122.872914,13.781182],[122.872733,13.781135],[122.872562,13.781211],[122.872315,13.781411],[122.872086,13.781611],[122.871915,13.781649],[122.871563,13.781687],[122.871353,13.781696],[122.87102,13.781782],[122.870887,13.781925],[122.870868,13.782077],[122.870915,13.782324],[122.871011,13.782667],[122.87102,13.782867],[122.871039,13.783048],[122.870992,13.783229],[122.870925,13.783267],[122.870839,13.783229],[122.870754,13.783124],[122.870677,13.782962],[122.870677,13.782867],[122.87062,13.782667],[122.870516,13.782515],[122.870363,13.782382],[122.870164,13.782315],[122.869992,13.782315],[122.869678,13.782315],[122.869364,13.782315],[122.869183,13.782315],[122.869078,13.782315],[122.868955,13.782239],[122.868955,13.782106],[122.868964,13.782001],[122.869002,13.781906],[122.86905,13.781801],[122.869136,13.781725],[122.869259,13.781658],[122.86945,13.781639],[122.86965,13.781639],[122.869878,13.781611],[122.870192,13.781487],[122.870363,13.781373],[122.870592,13.781154],[122.870763,13.780944],[122.870915,13.780783],[122.871087,13.780706],[122.871249,13.780602],[122.871401,13.780497],[122.871705,13.78045],[122.871972,13.780383],[122.8722,13.780326],[122.872533,13.780183],[122.872752,13.780059],[122.872905,13.779898],[122.873257,13.779688],[122.873504,13.779517],[122.873714,13.779307],[122.873809,13.779089],[122.873856,13.778917],[122.873856,13.778717],[122.873809,13.778518],[122.873647,13.778299],[122.873466,13.778165],[122.873209,13.778004],[122.872933,13.777908],[122.872695,13.777861],[122.872448,13.777842],[122.872124,13.777794],[122.871886,13.777718],[122.871658,13.777604],[122.871515,13.77748],[122.871363,13.77728],[122.871201,13.777014],[122.871068,13.776597],[122.87082,13.77595],[122.870696,13.775636],[122.87062,13.775493],[122.870478,13.775322],[122.870363,13.775313],[122.87004,13.775341],[122.869707,13.775398],[122.869488,13.775503],[122.869193,13.775627],[122.868974,13.775684],[122.868679,13.775693],[122.868422,13.775684],[122.868136,13.775655],[122.867794,13.775579],[122.867184,13.775408],[122.866965,13.775303],[122.866775,13.77517],[122.866566,13.774932],[122.866394,13.774732],[122.866261,13.774523],[122.866156,13.774304],[122.866042,13.774056],[122.865919,13.773818],[122.865842,13.773609],[122.865671,13.773419],[122.86557,13.773323],[122.865633,13.773153],[122.865653,13.773092],[122.865828,13.773188],[122.86605,13.773338],[122.866214,13.773459],[122.866356,13.77363],[122.866421,13.773787],[122.866506,13.774044],[122.866599,13.774194],[122.866763,13.77428],[122.866935,13.774301],[122.867156,13.774408],[122.867334,13.774558],[122.867527,13.774779],[122.867713,13.775001],[122.867891,13.775093],[122.86807,13.775136],[122.868327,13.775136],[122.868634,13.775043],[122.868919,13.774879],[122.869198,13.774665],[122.86959,13.774358],[122.86979,13.77423],[122.870068,13.774166],[122.870475,13.774166],[122.870768,13.774187],[122.871175,13.774137],[122.871496,13.774058],[122.871746,13.773959],[122.871989,13.77373],[122.87216,13.773445],[122.87226,13.773138],[122.872296,13.772924],[122.872403,13.772717],[122.872595,13.772667],[122.872852,13.772609],[122.873095,13.772609],[122.873345,13.772617],[122.873523,13.772631],[122.873709,13.772759],[122.873895,13.772952],[122.873987,13.773131],[122.874052,13.77338],[122.874059,13.773552],[122.87403,13.773766],[122.873966,13.773994],[122.873902,13.774165],[122.873866,13.774372],[122.873859,13.774637],[122.873859,13.774844],[122.873945,13.775072],[122.874059,13.775258],[122.874266,13.77555],[122.874287,13.775672],[122.874209,13.77585],[122.874073,13.776007],[122.873909,13.776093],[122.87368,13.776114],[122.873481,13.776078],[122.873181,13.775936],[122.872981,13.7758],[122.872852,13.7757],[122.872667,13.775664],[122.872453,13.775693],[122.872231,13.775722],[122.872032,13.775693],[122.871846,13.775615],[122.871675,13.775557],[122.871503,13.775557],[122.871382,13.775664],[122.871375,13.775786],[122.871525,13.775893],[122.871796,13.775986],[122.872039,13.776128],[122.872189,13.776307],[122.872231,13.776428],[122.872267,13.776685],[122.87226,13.776864],[122.872189,13.777035],[122.872167,13.777199],[122.872196,13.777306],[122.872303,13.777278],[122.872431,13.777135],[122.872588,13.776964],[122.87276,13.776828],[122.873045,13.776685],[122.873338,13.776571],[122.873588,13.77655],[122.873759,13.7766],[122.873909,13.7766],[122.87413,13.776657],[122.874294,13.776642],[122.874509,13.776514],[122.874701,13.776407],[122.874965,13.776364],[122.875142,13.776378],[122.874949,13.776704],[122.873955,13.777395],[122.874042,13.777903],[122.875146,13.779243],[122.875115,13.779248],[122.874858,13.779312],[122.874594,13.779405],[122.874387,13.779483],[122.874152,13.77959],[122.873937,13.779733],[122.873723,13.779912],[122.873552,13.780047],[122.873359,13.780211],[122.873181,13.780333],[122.872917,13.780461],[122.87276,13.780597],[122.872617,13.780661],[122.872438,13.780682],[122.872224,13.780661],[122.872124,13.780661],[122.871996,13.780661],[122.871746,13.780675],[122.871553,13.780754],[122.871368,13.780882],[122.871296,13.780996],[122.871275,13.781132],[122.871361,13.781182],[122.871525,13.781089],[122.87171,13.780982],[122.871924,13.780904],[122.872239,13.780875],[122.872524,13.780875],[122.87271,13.780832],[122.872888,13.780718],[122.873145,13.780597],[122.873495,13.78034],[122.873809,13.780176],[122.873916,13.779983],[122.874087,13.779812],[122.874387,13.779597],[122.874623,13.779512],[122.87503,13.779412],[122.875253,13.779373],[122.875507,13.779682]]],[[[122.886356,13.783731],[122.886306,13.783885],[122.88622,13.783695],[122.886144,13.783466],[122.886001,13.783238],[122.885868,13.783019],[122.885719,13.782878],[122.885877,13.782892],[122.885926,13.782896],[122.886356,13.783731]]],[[[122.879429,13.781078],[122.879348,13.781239],[122.879282,13.781373],[122.879148,13.781611],[122.879063,13.78181],[122.878929,13.781982],[122.878796,13.782153],[122.878663,13.782182],[122.878587,13.782067],[122.878568,13.781896],[122.878568,13.781763],[122.878606,13.781563],[122.878625,13.781411],[122.878663,13.781249],[122.878634,13.781116],[122.878511,13.781125],[122.878349,13.78123],[122.878235,13.781306],[122.878073,13.781401],[122.877863,13.781515],[122.877597,13.781611],[122.877397,13.781582],[122.877197,13.781468],[122.877064,13.781306],[122.876959,13.781106],[122.876912,13.780887],[122.876912,13.780697],[122.876959,13.780516],[122.877045,13.780392],[122.877082,13.780375],[122.877499,13.780468],[122.877335,13.780541],[122.877185,13.780655],[122.87712,13.780784],[122.877106,13.781012],[122.877149,13.781212],[122.87727,13.781319],[122.877463,13.781355],[122.877699,13.781291],[122.877934,13.781119],[122.878163,13.780927],[122.878397,13.780705],[122.879429,13.781078]]],[[[122.881945,13.781811],[122.881918,13.781829],[122.881737,13.78181],[122.881661,13.781744],[122.881655,13.781703],[122.881835,13.78175],[122.881945,13.781811]]]]},"properties":{"objectid":455132,"fscode":"01","brgy_name":"Colacling (Del Rosario)","city_name":"Lupi","prov_name":"Camarines Sur"}},{"type":"Feature","id":455370,"geometry":{"type":"MultiPolygon","coordinates":[[[[122.886497,13.784005],[122.886676,13.784354],[122.886663,13.78536],[122.886562,13.785897],[122.886467,13.786157],[122.886415,13.785992],[122.88638,13.785685],[122.886366,13.785242],[122.886366,13.784935],[122.886391,13.78477],[122.886458,13.784647],[122.886487,13.784447],[122.886477,13.784323],[122.886429,13.784213],[122.886497,13.784005]]],[[[122.874718,13.775481],[122.87474,13.775485],[122.874843,13.775503],[122.875071,13.775559],[122.875189,13.776009],[122.875115,13.77597],[122.874923,13.775799],[122.874751,13.775542],[122.874718,13.775481]]],[[[122.87465,13.773493],[122.874781,13.773907],[122.874662,13.774441],[122.874513,13.774933],[122.874466,13.774771],[122.874387,13.774393],[122.874459,13.7741],[122.874509,13.773879],[122.874573,13.773672],[122.87465,13.773493]]]]},"properties":{"objectid":455370,"fscode":"01","brgy_name":"Colacling (Del Rosario)","city_name":"Lupi","prov_name":"Camarines Sur"}},{"type":"Feature","id":462609,"geometry":{"type":"MultiPolygon","coordinates":[[[[122.875142,13.776378],[122.874965,13.776364],[122.874701,13.776407],[122.874509,13.776514],[122.874294,13.776642],[122.87413,13.776657],[122.873909,13.7766],[122.873759,13.7766],[122.873588,13.77655],[122.873338,13.776571],[122.873045,13.776685],[122.87276,13.776828],[122.872588,13.776964],[122.872431,13.777135],[122.872303,13.777278],[122.872196,13.777306],[122.872167,13.777199],[122.872189,13.777035],[122.87226,13.776864],[122.872267,13.776685],[122.872231,13.776428],[122.872189,13.776307],[122.872039,13.776128],[122.871796,13.775986],[122.871525,13.775893],[122.871375,13.775786],[122.871382,13.775664],[122.871503,13.775557],[122.871675,13.775557],[122.871846,13.775615],[122.872032,13.775693],[122.872231,13.775722],[122.872453,13.775693],[122.872667,13.775664],[122.872852,13.7757],[122.872981,13.7758],[122.873181,13.775936],[122.873481,13.776078],[122.87368,13.776114],[122.873909,13.776093],[122.874073,13.776007],[122.874209,13.77585],[122.874287,13.775672],[122.874266,13.77555],[122.874059,13.775258],[122.873945,13.775072],[122.873859,13.774844],[122.873859,13.774637],[122.873866,13.774372],[122.873902,13.774165],[122.873966,13.773994],[122.87403,13.773766],[122.874059,13.773552],[122.874052,13.77338],[122.873987,13.773131],[122.873895,13.772952],[122.873709,13.772759],[122.873523,13.772631],[122.873345,13.772617],[122.873095,13.772609],[122.872852,13.772609],[122.872595,13.772667],[122.872403,13.772717],[122.872296,13.772924],[122.87226,13.773138],[122.87216,13.773445],[122.871989,13.77373],[122.871746,13.773959],[122.871496,13.774058],[122.871175,13.774137],[122.870768,13.774187],[122.870475,13.774166],[122.870068,13.774166],[122.86979,13.77423],[122.86959,13.774358],[122.869198,13.774665],[122.868919,13.774879],[122.868634,13.775043],[122.868327,13.775136],[122.86807,13.775136],[122.867891,13.775093],[122.867713,13.775001],[122.867527,13.774779],[122.867334,13.774558],[122.867156,13.774408],[122.866935,13.774301],[122.866763,13.77428],[122.866599,13.774194],[122.866506,13.774044],[122.866421,13.773787],[122.866356,13.77363],[122.866214,13.773459],[122.86605,13.773338],[122.865828,13.773188],[122.865653,13.773092],[122.866081,13.771768],[122.866096,13.771429],[122.866133,13.771606],[122.866279,13.771642],[122.866608,13.771536],[122.866863,13.771509],[122.866808,13.77156],[122.866665,13.771703],[122.866551,13.771853],[122.866472,13.772003],[122.866429,13.772153],[122.866394,13.772303],[122.866358,13.772453],[122.866329,13.772624],[122.866322,13.77276],[122.866336,13.772888],[122.866394,13.772988],[122.866465,13.773045],[122.866658,13.773131],[122.866765,13.773209],[122.866936,13.773302],[122.867107,13.773395],[122.867279,13.773516],[122.867421,13.77363],[122.867543,13.773752],[122.867664,13.77388],[122.86775,13.774051],[122.867821,13.774201],[122.867921,13.77438],[122.867985,13.774515],[122.868085,13.774644],[122.868214,13.774708],[122.868314,13.774715],[122.868464,13.774694],[122.868585,13.774594],[122.868714,13.774437],[122.868849,13.774287],[122.868935,13.774201],[122.869056,13.774073],[122.869263,13.773944],[122.869506,13.773816],[122.869763,13.773659],[122.869941,13.773573],[122.870141,13.77353],[122.870412,13.77353],[122.870605,13.773509],[122.870826,13.77348],[122.871012,13.773445],[122.871169,13.77338],[122.871283,13.773259],[122.87139,13.773131],[122.871448,13.772988],[122.871442,13.772826],[122.87145,13.772835],[122.871708,13.772992],[122.872047,13.772992],[122.87216,13.772741],[122.872112,13.772365],[122.871934,13.771942],[122.872014,13.771675],[122.872288,13.771503],[122.872399,13.771455],[122.87252,13.77147],[122.872698,13.771513],[122.872812,13.77162],[122.872934,13.771806],[122.873017,13.771905],[122.872919,13.772084],[122.872693,13.772381],[122.872854,13.772491],[122.873209,13.772397],[122.873662,13.772257],[122.873839,13.772492],[122.874306,13.772852],[122.87446,13.773068],[122.874647,13.773486],[122.87465,13.773493],[122.874573,13.773672],[122.874509,13.773879],[122.874459,13.7741],[122.874387,13.774393],[122.874466,13.774771],[122.874513,13.774933],[122.874487,13.775019],[122.874544,13.775448],[122.874718,13.775481],[122.874751,13.775542],[122.874923,13.775799],[122.875115,13.77597],[122.875189,13.776009],[122.875242,13.77621],[122.875142,13.776378]]],[[[122.886497,13.784005],[122.886429,13.784213],[122.886382,13.784104],[122.886306,13.783885],[122.886356,13.783731],[122.886497,13.784005]]],[[[122.878397,13.780705],[122.878163,13.780927],[122.877934,13.781119],[122.877699,13.781291],[122.877463,13.781355],[122.87727,13.781319],[122.877149,13.781212],[122.877106,13.781012],[122.87712,13.780784],[122.877185,13.780655],[122.877335,13.780541],[122.877499,13.780468],[122.878125,13.780607],[122.878397,13.780705]]],[[[122.875253,13.779373],[122.87503,13.779412],[122.874623,13.779512],[122.874387,13.779597],[122.874087,13.779812],[122.873916,13.779983],[122.873809,13.780176],[122.873495,13.78034],[122.873145,13.780597],[122.872888,13.780718],[122.87271,13.780832],[122.872524,13.780875],[122.872239,13.780875],[122.871924,13.780904],[122.87171,13.780982],[122.871525,13.781089],[122.871361,13.781182],[122.871275,13.781132],[122.871296,13.780996],[122.871368,13.780882],[122.871553,13.780754],[122.871746,13.780675],[122.871996,13.780661],[122.872124,13.780661],[122.872224,13.780661],[122.872438,13.780682],[122.872617,13.780661],[122.87276,13.780597],[122.872917,13.780461],[122.873181,13.780333],[122.873359,13.780211],[122.873552,13.780047],[122.873723,13.779912],[122.873937,13.779733],[122.874152,13.77959],[122.874387,13.779483],[122.874594,13.779405],[122.874858,13.779312],[122.875115,13.779248],[122.875146,13.779243],[122.875253,13.779373]]],[[[122.870971,13.771554],[122.870989,13.771541],[122.871076,13.771554],[122.871215,13.771573],[122.8714,13.771596],[122.871302,13.771988],[122.871287,13.772365],[122.871297,13.772459],[122.871276,13.772424],[122.871241,13.772288],[122.871219,13.772117],[122.871198,13.771974],[122.871148,13.771817],[122.871062,13.771639],[122.870971,13.771554]]]]},"properties":{"objectid":462609,"fscode":"02","brgy_name":"Colacling (Del Rosario)","city_name":"Lupi","prov_name":"Camarines Sur"}},{"type":"Feature","id":462794,"geometry":{"type":"Polygon","coordinates":[[[122.886467,13.786157],[122.886405,13.786324],[122.886493,13.78673],[122.886479,13.786722],[122.886251,13.78653],[122.886151,13.786308],[122.886108,13.786037],[122.886036,13.785709],[122.886029,13.785409],[122.886039,13.784837],[122.886192,13.784837],[122.886391,13.78477],[122.886366,13.784935],[122.886366,13.785242],[122.88638,13.785685],[122.886415,13.785992],[122.886467,13.786157]]]},"properties":{"objectid":462794,"fscode":"02","brgy_name":"Colacling (Del Rosario)","city_name":"Lupi","prov_name":"Camarines Sur"}}]}
